IRIDIUM 150             
1 43257U 18030J   24239.20772299  .00000389  00000+0  13177-3 0  9992
2 43257  86.3999 206.2650 0002017  85.4260 274.7167 14.34219950335589
IRIDIUM 143             
1 43258U 18030K   24239.39800242  .00000240  00000+0  78593-4 0  9993
2 43258  86.4000 206.2519 0002035  88.8863 271.2566 14.34217490335553
IRIDIUM 161             
1 43478U 18047C   24239.41671500  .00001000  00000+0  29124-3 0  9991
2 43478  86.4537   4.1853 0001982  92.1062 268.0365 14.43268489329971
IRIDIUM 152             
1 43479U 18047D   24239.44048861  .00000338  00000+0  11347-3 0  9994
2 43479  86.4012   4.0349 0002040  93.1103 267.0327 14.34218625327930
IRIDIUM 147             
1 43480U 18047E   24239.09798531  .00000700  00000+0  24292-3 0  9999
2 43480  86.4013   4.1715 0002172  92.5027 267.6418 14.34221457327872
IRIDIUM 110             
1 43481U 18047F   24238.89502667  .00000281  00000+0  93308-4 0  9999
2 43481  86.4016   4.3309 0002500  87.3419 272.8063 14.34217060327834
IRIDIUM 162             
1 43482U 18047G   24239.41043085  .00001015  00000+0  29582-3 0  9991
2 43482  86.4536   4.0870 0002242  86.0413 274.1045 14.43266150329960
IRIDIUM 160             
1 43569U 18061A   24238.77111692  .00000724  00000+0  25143-3 0  9996
2 43569  86.4016 332.7791 0002570  95.2748 264.8741 14.34209190318710
